street_name,Latitude,Longitude
JURONG EAST ST 21,1.3339694,103.7459035
JURONG EAST ST 24,1.3424006000000002,103.7430489
JURONG EAST ST 32,1.3446074,103.73369140000001
PANDAN GDNS,1.31941495,103.74837287818569
TEBAN GDNS RD,1.3200534,103.7449705
JURONG EAST ST 13,1.3353553999999999,103.73872109999999
JURONG EAST ST 31,1.3442166000000002,103.73010649999999
TOH GUAN RD,1.3398667,103.74792120000001
JURONG EAST AVE 1,1.3454118,103.7322369
JURONG WEST ST 93,1.3393183000000002,103.69301159999999
BOON LAY AVE,1.3490889,103.71149820000001
BOON LAY DRIVE,1.3454148000000001,103.7093486
BOON LAY PL,1.3475171,103.71387991665716
HO CHING RD,1.3342656000000002,103.7250118
JURONG WEST ST 41,1.3499631,103.7258252
JURONG WEST ST 42,1.3530672,103.7227505
JURONG WEST ST 52,1.3465983999999998,103.7204962
JURONG WEST ST 91,1.3430576,103.69246009999999
JURONG WEST ST 92,1.3397256000000002,103.69042859999999
YUAN CHING RD,1.3267749,103.7253973
CORPORATION DRIVE,1.3270731000000002,103.7228006
JURONG WEST AVE 1,1.3499831,103.7263522
JURONG WEST AVE 3,1.351759,103.70468290000001
JURONG WEST AVE 5,1.3469276000000001,103.69700279999999
JURONG WEST CENTRAL 1,1.3411162,103.7039427
JURONG WEST ST 25,1.3539854,103.70479370000001
JURONG WEST ST 61,1.3398484,103.6979348
JURONG WEST ST 62,1.3410937,103.70381429999999
JURONG WEST ST 64,1.3456515,103.7023709
JURONG WEST ST 65,1.3366837,103.7013533
JURONG WEST ST 71,1.3420107,103.6960412
JURONG WEST ST 73,1.3481589,103.69994179999999
JURONG WEST ST 74,1.3482517,103.6991167
JURONG WEST ST 75,1.3484155,103.69703620000001
JURONG WEST ST 81,1.3437701000000002,103.694682
KANG CHING RD,1.3400371000000002,103.7233002
TAH CHING RD,1.3383105,103.7243255
YUNG AN RD,1.3367049,103.7195007
YUNG SHENG RD,1.3341351000000001,103.7216096
ANG MO KIO AVE 10,1.3757476999999998,103.8546396
ANG MO KIO AVE 4,1.3696636999999998,103.8370815
ANG MO KIO AVE 5,1.3811038,103.8342499
ANG MO KIO AVE 1,1.3680475,103.82830890000001
ANG MO KIO AVE 3,1.3670742,103.83583990000001
ANG MO KIO AVE 9,1.3840325,103.8432563
ANG MO KIO AVE 8,1.3732753999999998,103.84808149999999
ANG MO KIO AVE 6,1.3642769,103.84294659999999
ANG MO KIO ST 52,1.3724357,103.8561726
BEDOK NORTH AVE 4,1.3368455,103.94459590000001
BEDOK NORTH AVE 1,1.3265513,103.9268627
BEDOK NORTH RD,1.3314238999999999,103.93364270000001
BEDOK STH RD,1.3194204999999999,103.93493050000001
BEDOK STH AVE 1,1.3168318,103.9331875
BEDOK RESERVOIR RD,1.3308635,103.90640309999999
CHAI CHEE ST,1.3292662,103.9238355
BEDOK NORTH ST 3,1.3337996,103.929348
CHAI CHEE AVE,1.3253337,103.92321020000001
NEW UPPER CHANGI RD,1.3266937,103.9456686
CHAI CHEE DRIVE,1.3218333999999998,103.9197179
BEDOK STH AVE 2,1.3223311000000002,103.93747690000001
BEDOK NORTH AVE 3,1.3315626,103.93421790000001
BEDOK RESERVOIR VIEW,1.3372258999999997,103.9353096
CHAI CHEE RD,1.3228038,103.92334609999999
LENGKONG TIGA,1.3234584999999999,103.9128989
BEDOK CENTRAL,1.3260587,103.9353386
JALAN DAMAI,1.3351981000000002,103.9091125
BEDOK NORTH AVE 2,1.3307008999999999,103.9305849
BEDOK STH AVE 3,1.3246531000000001,103.9443868
SIN MING RD,1.3538309,103.8359877
SIN MING AVE,1.3620253999999998,103.8390037
BISHAN ST 12,1.3454937,103.8503369
BISHAN ST 13,1.3501121,103.8503071
BISHAN ST 22,1.358745,103.8434995
BISHAN ST 24,1.3587216,103.8435228
BISHAN ST 23,1.3567233,103.8462278
BRIGHT HILL DRIVE,1.3595525,103.8333334
SHUNFU RD,1.3514262,103.8388142
BUKIT BATOK ST 34,1.363784,103.7514862
BUKIT BATOK ST 51,1.356465,103.7491442
BUKIT BATOK ST 11,1.3489943000000002,103.7430516
BUKIT BATOK ST 52,1.3546094,103.75180879999999
BUKIT BATOK ST 21,1.3456948,103.7512887
BUKIT BATOK EAST AVE 5,1.3580183000000001,103.7515871
BUKIT BATOK WEST AVE 6,1.3516941,103.745295
BUKIT BATOK CENTRAL,1.3497278499999998,103.75102058137735
BUKIT BATOK WEST AVE 8,1.3508547,103.7395286
BUKIT BATOK EAST AVE 4,1.3493643999999998,103.75831099999999
BUKIT BATOK ST 31,1.3591676000000001,103.7490636
BUKIT BATOK ST 25,1.3465783000000002,103.7608238
BUKIT BATOK EAST AVE 3,1.3354336000000002,103.75968459999999
BUKIT BATOK WEST AVE 5,1.3644208999999998,103.7513807
JALAN BUKIT MERAH,1.277474,103.8321677
BUKIT BATOK ST 24,1.3429563,103.7587334
JALAN BUKIT HO SWEE,1.2872371999999999,103.8287569
TELOK BLANGAH DRIVE,1.2745212,103.8045918
BEO CRES,1.2891495000000002,103.82676999065909
TELOK BLANGAH CRES,1.2774161,103.81906217374384
TELOK BLANGAH RISE,1.272067,103.8216406
TELOK BLANGAH WAY,1.2747357,103.8214566
JALAN KLINIK,1.2873011,103.82883120000001
TELOK BLANGAH HTS,1.2778983,103.8079673
BUKIT MERAH VIEW,1.28350915,103.82332492999028
INDUS RD,1.2887995,103.82962059999998
BUKIT MERAH LANE 1,1.2848282,103.8030894
TELOK BLANGAH ST 31,1.2722440000000002,103.8055261
MOH GUAN TER,1.2837705,103.8309072
157 CORPORATION DRIVE,1.3315077,103.7234635
BEACH RD,1.3030517,103.86226690000001
ST. GEORGE'S LANE,1.3229841999999998,103.86221640000001
BENDEMEER RD,1.3204862,103.8651583
HAVELOCK RD,1.2887393999999999,103.8296898
CRAWFORD LANE,1.3054635,103.86209079999999
FARRER PK RD,1.3112149,103.850515
GEYLANG BAHRU,1.3246712999999999,103.8682501
JALAN BAHAGIA,1.3248947,103.8590618
JALAN BATU,1.3018778,103.8821697
KALLANG BAHRU,1.3211072,103.871315
HENDERSON CRES,1.2890964,103.8220094
BUKIT PURMEI RD,1.273715,103.8259825
KIM TIAN RD,1.284659,103.8294426
DEPOT RD,1.2813267,103.80232020000001
JALAN RUMAH TINGGI,1.2890059,103.8091828
DELTA AVE,1.2921536,103.826064
JALAN MEMBINA,1.2827349,103.82621
REDHILL RD,1.2878113000000002,103.81468170000001
KING GEORGE'S AVE,1.3068912,103.8587564
LORONG LIMAU,1.3239864,103.85516190000001
RACE COURSE RD,1.3119816,103.8531973
ST. GEORGE'S RD,1.3220413999999998,103.86330240000001
UPPER BOON KENG RD,1.3143707,103.8723573
WHAMPOA DRIVE,1.3225393,103.85271209999999
WHAMPOA WEST,1.3198991000000002,103.864694
BOON KENG RD,1.3167366000000003,103.8627914
CAMBRIDGE RD,1.3133475000000001,103.84684159999999
JALAN DUSUN,1.3285374,103.8439082
JALAN TENTERAM,1.3277402,103.86150699999999
KENT RD,1.3155834,103.8513658
LORONG 3 GEYLANG,1.3150777,103.87303940000001
MCNAIR RD,1.3203268999999997,103.858769
LENGKOK BAHRU,1.2882046,103.8148748
ZION RD,1.2924625,103.8303923
PUNGGOL PL,1.4009352,103.9016799
PUNGGOL RD,1.4188048,103.9099297
JALAN RAJAH,1.3267343,103.8477245
WHAMPOA RD,1.3268799999999998,103.8552135
MARINE CRES,1.305915,103.9135853
MARINE DRIVE,1.30322795,103.90865671994136
MARINE TER,1.3049790000000001,103.9169381
CHANGI VILLAGE RD,1.3902802,103.98670290000001
PASIR RIS DRIVE 10,1.3777704,103.93687790000001
PASIR RIS DRIVE 3,1.3825888000000002,103.9383875
PASIR RIS DRIVE 4,1.370092,103.9606297
PASIR RIS DRIVE 6,1.3713013,103.956935
PASIR RIS ST 11,1.3647391000000002,103.9618619
PASIR RIS ST 12,1.3666817,103.9588811
PASIR RIS ST 13,1.3635221000000002,103.9610667
PASIR RIS ST 21,1.3666341,103.9637819
PASIR RIS ST 51,1.3674829,103.9512963
PASIR RIS ST 53,1.3736297,103.9478921
PASIR RIS ST 71,1.378688,103.9355906
ELIAS RD,1.3733385,103.94033309999999
PASIR RIS DRIVE 1,1.3787966999999999,103.9357743
PASIR RIS ST 52,1.3742923999999999,103.9458083
PASIR RIS ST 41,1.3719583,103.9567043
PASIR RIS ST 72,1.3806409,103.9361115
PUNGGOL CENTRAL,1.3980923,103.91284449999999
PUNGGOL WALK,1.4075073,103.9013813
EDGEDALE PLAINS,1.3983983,103.9132116
EDGEFIELD PLAINS,1.3973615,103.906529
YISHUN ST 41,1.419735,103.8437297
PUNGGOL DRIVE,1.4019312,103.91339599999999
PUNGGOL EAST,1.3980396000000002,103.91874279999999
PUNGGOL FIELD,1.4033917,103.8967028
PETIR RD,1.373406,103.773404
PENDING RD,1.3758654,103.77098690000001
BANGKIT RD,1.3765962999999999,103.773409
SEGAR RD,1.388614,103.770767
JELAPANG RD,1.38525,103.7670148
SENJA RD,1.384611,103.76032070000001
FAJAR RD,1.3842446000000002,103.7703137
BUKIT PANJANG RING RD,1.384317,103.7624054
SENJA LINK,1.3861940000000001,103.76340429999999
LOMPANG RD,1.3796151,103.7654158
GANGSA RD,1.3791848999999998,103.767134
TOH YI DRIVE,1.3402802,103.77212940000001
FARRER RD,1.3176276000000002,103.8077853
JALAN KUKOH,1.2883308,103.8395829
ROWELL RD,1.3092285,103.8538768
WATERLOO ST,1.2994261,103.852085
NEW MKT RD,1.2869758,103.84451899999999
TANJONG PAGAR PLAZA,1.2772615,103.8428559385813
QUEEN ST,1.2997945,103.85369150000001
BAIN ST,1.2975596999999999,103.853387
CANTONMENT RD,1.2751428999999999,103.84094499999999
TECK WHYE LANE,1.3777253,103.7547056
CHOA CHU KANG AVE 4,1.3847476,103.74550129999999
CHOA CHU KANG AVE 3,1.3765497,103.7359791
CHOA CHU KANG CRES,1.4010533,103.74569240000001
CHOA CHU KANG ST 54,1.3955363,103.75029640000001
CIRCUIT RD,1.3249654,103.885061
CHOA CHU KANG CENTRAL,1.3826143999999998,103.74450920000001
JALAN TECK WHYE,1.3806433999999999,103.756008
CHOA CHU KANG ST 62,1.3985976,103.7478327
CHOA CHU KANG NORTH 6,1.3962453000000001,103.7485213
CHOA CHU KANG DRIVE,1.3974652,103.74776920000001
CHOA CHU KANG NORTH 5,1.3928034,103.7427274
CHOA CHU KANG ST 52,1.3928034,103.7427274
CHOA CHU KANG AVE 2,1.379904,103.7450402
CLEMENTI WEST ST 2,1.3057326,103.76286800000001
WEST COAST RD,1.2955601,103.7667141
CLEMENTI WEST ST 1,1.3048861999999999,103.7662478
CLEMENTI AVE 4,1.3164023,103.7653233
CLEMENTI AVE 5,1.3167223999999997,103.7698585
CLEMENTI ST 11,1.3140256000000001,103.7624098
CLEMENTI AVE 2,1.3088745000000002,103.76614190000001
CLEMENTI AVE 3,1.3115411,103.76505920000001
CLEMENTI AVE 1,1.3076504,103.76879009999999
COMMONWEALTH AVE WEST,1.3259843,103.75698620000001
BALAM RD,1.3298615,103.8865559
MACPHERSON LANE,1.3326508,103.88530329999999
EUNOS CRES,1.3207219,103.9036666801952
UBI AVE 1,1.3250959999999998,103.8936493
HAIG RD,1.3129829,103.8960563
OLD AIRPORT RD,1.3067613,103.8835354
GEYLANG EAST AVE 1,1.3188068000000002,103.88584370000001
SIMS DRIVE,1.316476,103.87799509999999
PIPIT RD,1.3233151,103.8890677
GEYLANG EAST CENTRAL,1.32027145,103.88738044802069
EUNOS RD 5,1.3198557,103.89626899999999
CASSIA CRES,1.3093795,103.8848305
BUANGKOK CRES,1.3841103000000001,103.8832573
HOUGANG AVE 3,1.3386498,103.89518299999999
HOUGANG AVE 8,1.3692514999999998,103.8798375
HOUGANG AVE 1,1.3489671,103.88767390000001
HOUGANG AVE 5,1.3658133,103.89776690000001
HOUGANG ST 61,1.3748051000000001,103.8850818
DOVER RD,1.3019037,103.7831933
HOUGANG ST 11,1.3527978999999999,103.8786781
HOUGANG AVE 7,1.3714043,103.90094599999999
HOUGANG AVE 4,1.3716373,103.8867653
HOUGANG AVE 2,1.3677471,103.8867584
LORONG AH SOO,1.3520481000000002,103.88458670000001
HOUGANG ST 92,1.3731064,103.8808592
HOUGANG ST 52,1.3758376,103.88986779999999
HOUGANG AVE 10,1.3677471,103.8867584
HOUGANG ST 51,1.3805199,103.8874613
UPPER SERANGOON RD,1.3314606000000002,103.86919520000001
HOUGANG CENTRAL,1.3710492,103.89435758379814
HOUGANG ST 91,1.3771495,103.8842627
BUANGKOK LINK,1.3843105,103.8834426
HOUGANG ST 31,1.3635317,103.88953470000001
FERNVALE RD,1.3890688,103.8755082
JALAN KAYU,1.3911474,103.8714593
FERNVALE LINK,1.3956847,103.87907290000001
RIVERVALE CRES,1.3926468,103.906435
PUNGGOL FIELD WALK,1.3918116000000003,103.91250840000001
COMMONWEALTH CL,1.3043615,103.8010068
COMMONWEALTH DRIVE,1.3030358999999998,103.7971152
GHIM MOH LINK,1.3084725,103.78666059999999
DOVER CRES,1.3073442,103.7826859
GHIM MOH RD,1.3116617,103.78900440000001
HOLLAND AVE,1.307836,103.794395
HOLLAND CL,1.3083051,103.7947531
HOLLAND DRIVE,1.3083608999999998,103.7932789
MEI LING ST,1.2941108000000001,103.8039865
QUEEN'S CL,1.2919296,103.80023299999999
STIRLING RD,1.2912402,103.8018791
STRATHMORE AVE,1.29340475,103.81161779072569
QUEENSWAY,1.3090597,103.8031155
TANGLIN HALT RD,1.3003118,103.7979386
DOVER CL EAST,1.3036533000000001,103.78652779999999
ADMIRALTY DRIVE,1.4503151,103.8162214
ADMIRALTY LINK,1.4549836,103.8174025
CANBERRA LINK,1.4480126,103.8265078
CANBERRA RD,1.4453147,103.82346770000001
MONTREAL DRIVE,1.4529041999999999,103.8241857
SEMBAWANG CL,1.4485772,103.8165649
SEMBAWANG CRES,1.4455445,103.8151896
SEMBAWANG DRIVE,1.4514938,103.8173555
SEMBAWANG VISTA,1.4471133999999999,103.8205374
WELLINGTON CIRCLE,1.4521765,103.82056920000001
TAO CHING RD,1.3327685,103.7249411
JURONG WEST ST 72,1.3444924999999999,103.7001134
YUNG HO RD,1.3264978,103.7243682
JURONG WEST ST 24,1.3515158,103.7047402
DORSET RD,1.3154294,103.8529768
OWEN RD,1.3137277,103.8530366
NTH BRIDGE RD,1.298885,103.85591140000001
TOWNER RD,1.3185904,103.860421
SENGKANG WEST WAY,1.3950403,103.8757375
ANCHORVALE DRIVE,1.3895002,103.89218829999999
ANCHORVALE LANE,1.3918017,103.88648859999999
ANCHORVALE LINK,1.3969096,103.8909003
ANCHORVALE RD,1.3972263999999999,103.8878453
COMPASSVALE BOW,1.3808367,103.8970145
COMPASSVALE CRES,1.3974063,103.8977579
COMPASSVALE DRIVE,1.3889089,103.894186
COMPASSVALE LANE,1.3853802,103.8975441
COMPASSVALE LINK,1.3853167,103.8955063
COMPASSVALE RD,1.3923659,103.8980833
COMPASSVALE ST,1.394976,103.89873370000001
FERNVALE LANE,1.39002,103.8735941
RIVERVALE DRIVE,1.3814885000000001,103.901675
RIVERVALE ST,1.388765,103.9021185
RIVERVALE WALK,1.3840515,103.90006059999999
SENGKANG CENTRAL,1.3799629,103.8927994
SENGKANG EAST WAY,1.3947093000000002,103.8865747
SENGKANG WEST AVE,1.3921842,103.8799967
SERANGOON NORTH AVE 4,1.3771354,103.8755801
COMPASSVALE WALK,1.390011,103.899987
SENGKANG EAST RD,1.3823267,103.88878079999999
LORONG LEW LIAN,1.3500117,103.87856690000001
SERANGOON AVE 2,1.3510148000000002,103.8708178
SERANGOON AVE 3,1.352031,103.8701541
SERANGOON AVE 4,1.3557436999999999,103.8713719
SERANGOON NORTH AVE 1,1.3697466999999999,103.8716346
SERANGOON NORTH AVE 2,1.3690381999999999,103.8752516
SERANGOON AVE 1,1.3475734,103.8748122
SERANGOON CENTRAL,1.3535142,103.87161635184229
SERANGOON CENTRAL DRIVE,1.3546333000000002,103.8705689
SERANGOON NORTH AVE 3,1.3723796999999998,103.8719593
COMMONWEALTH CRES,1.3068452,103.80022692062336
CLARENCE LANE,1.2919091,103.81402829999999
TAMPINES AVE 5,1.3463479,103.9430816
TAMPINES AVE 9,1.3585334,103.9554216
TAMPINES ST 22,1.3497993000000001,103.950845
TAMPINES AVE 4,1.3531318,103.9460589
TAMPINES ST 11,1.3474693000000002,103.9445319
TAMPINES ST 21,1.3547908000000002,103.9476929
TAMPINES ST 23,1.3537841,103.95226190000001
TAMPINES ST 41,1.3566593999999998,103.9462362
TAMPINES ST 81,1.350459,103.9325265
TAMPINES ST 82,1.3516389,103.93927459999999
TAMPINES ST 83,1.3557245,103.9348476
SIMEI ST 1,1.346357,103.95781059999999
SIMEI ST 2,1.3440456,103.95562059999999
SIMEI ST 4,1.3433765,103.9548401
TAMPINES AVE 8,1.349605,103.9289615
TAMPINES CENTRAL 7,1.3578685,103.9400729
TAMPINES ST 12,1.3499778,103.9450604
TAMPINES ST 24,1.3563922,103.9519045
TAMPINES ST 33,1.3533091,103.9579475
TAMPINES ST 34,1.3574506000000002,103.95862840000001
TAMPINES ST 42,1.3586112,103.95342159999998
TAMPINES ST 44,1.3607331,103.9539865
TAMPINES ST 91,1.3483459,103.9387156
TAMPINES ST 71,1.3558669,103.9363275
TAMPINES ST 32,1.3537848999999997,103.95515400000001
TAMPINES ST 45,1.3614832000000001,103.9547315
TAMPINES ST 72,1.3603424,103.934748
TAMPINES ST 84,1.3535571000000002,103.9309915
SIMEI LANE,1.3430495,103.95790500000001
SIMEI RD,1.3427176,103.95789029999999
TAMPINES AVE 7,1.3566572000000001,103.9451057
SIMEI ST 5,1.3444798999999998,103.9536307
TAMPINES ST 43,1.3605243999999999,103.9523821
LORONG 5 TOA PAYOH,1.3342976999999998,103.8538806
LORONG 7 TOA PAYOH,1.3342791999999999,103.85804920000001
LORONG 4 TOA PAYOH,1.3311868,103.85188259999998
LORONG 1 TOA PAYOH,1.3396879,103.8442682
TOA PAYOH EAST,1.3341946000000002,103.85626440000001
POTONG PASIR AVE 3,1.3333416,103.8652285
MARSILING DRIVE,1.4418846,103.77525340000001
MARSILING LANE,1.4468464,103.771304
WOODLANDS DRIVE 50,1.4370714,103.7909175
WOODLANDS ST 13,1.4358788,103.78100359999999
KIM KEAT AVE,1.3324338,103.85927840000001
LORONG 1A TOA PAYOH,1.3370107,103.8436028
LORONG 2 TOA PAYOH,1.3316326,103.846233
POTONG PASIR AVE 1,1.3331274,103.868138
JOO SENG RD,1.3381503000000001,103.8845661
KIM KEAT LINK,1.3316643,103.8545117
LORONG 8 TOA PAYOH,1.3352917,103.858039
POTONG PASIR AVE 2,1.3330431999999999,103.86806729999999
TOA PAYOH CENTRAL,1.33267465,103.85053866656416
TOA PAYOH NORTH,1.3416548,103.84645937366291
LORONG 3 TOA PAYOH,1.3385141999999999,103.8464917
WOODLANDS DRIVE 52,1.433225,103.7993948
WOODLANDS ST 41,1.4290406999999998,103.7720746
MARSILING CRES,1.4472483,103.7741977
WOODLANDS ST 83,1.4408517,103.7937196
WOODLANDS CIRCLE,1.4450637,103.7961997
WOODLANDS DRIVE 40,1.4423437,103.796276
WOODLANDS ST 31,1.4306649999999999,103.7745515
WOODLANDS DRIVE 16,1.4318475,103.79568309999999
WOODLANDS ST 81,1.4425691,103.7888622
WOODLANDS RING RD,1.4374187,103.7974567
WOODLANDS DRIVE 53,1.4317597,103.7970495
WOODLANDS DRIVE 62,1.4393017,103.8054304
WOODLANDS DRIVE 70,1.4401658000000002,103.79852220000001
WOODLANDS DRIVE 42,1.4368958,103.7960118
WOODLANDS AVE 6,1.4414861,103.80180190000002
WOODLANDS DRIVE 14,1.4322398,103.7922022
WOODLANDS AVE 1,1.4272444,103.79469870000001
WOODLANDS AVE 5,1.434431,103.78549240000001
MARSILING RISE,1.4378861,103.78260829999999
WOODLANDS CRES,1.4441066,103.80355240000002
WOODLANDS DRIVE 73,1.4412211000000001,103.805634
WOODLANDS DRIVE 44,1.4315445,103.79423349999999
YISHUN RING RD,1.4310656000000002,103.82971579999999
YISHUN AVE 3,1.4259097,103.82705440000001
YISHUN ST 11,1.4346856000000001,103.8323493
YISHUN AVE 4,1.4131014,103.8390839
YISHUN ST 22,1.4372582,103.8368983
YISHUN ST 71,1.4263531,103.8280887
YISHUN AVE 5,1.430248,103.8288622
YISHUN ST 21,1.4354108,103.8361179
YISHUN ST 61,1.4197481,103.83802359999999
YISHUN AVE 6,1.427362,103.8495237
YISHUN AVE 11,1.424424,103.84473340000001
YISHUN CENTRAL,1.42645065,103.83720383435042
YISHUN ST 81,1.4131325000000001,103.8345377
YISHUN ST 72,1.4286931999999999,103.8334882
YISHUN AVE 2,1.4100065,103.82954790000001
WOODLANDS AVE 4,1.4495293,103.7913092
ANG MO KIO ST 32,1.3635834,103.84908670000002
ANG MO KIO ST 31,1.3674108999999999,103.8448007
BEDOK NORTH ST 2,1.3276537,103.94001999999999
WOODLANDS DRIVE 60,1.4461163000000001,103.79898829999999
BEDOK NORTH ST 1,1.3273336000000002,103.9310624
YISHUN AVE 7,1.4356412,103.82646700000001
YISHUN AVE 9,1.4340346000000002,103.8419066
WOODLAND DRIVE 75,1.4420127,103.8076149
WOODLANDS ST 32,1.4307239999999999,103.7802753
WOODLANDS AVE 9,1.4547903999999998,103.8118202
WOODLANDS ST 11,1.4338211,103.7756666
WOODLANDS ST 82,1.4441033,103.7928093
MARSILING RD,1.4431966999999999,103.7808225
JALAN TENAGA,1.3342782,103.90570500000001
BEDOK NORTH ST 4,1.3310461999999998,103.93940079999999
YISHUN ST 20,1.4358879,103.8359448
BUKIT BATOK WEST AVE 4,1.3643332000000001,103.7470953
CANTONMENT CL,1.2749808,103.8399726
BOON TIONG RD,1.2859684,103.83010329999999
SPOTTISWOODE PK RD,1.2761265,103.83705090000001
REDHILL CL,1.2849911,103.81799409999999
KIM TIAN PL,1.3114355,103.87624029999999
CASHEW RD,1.3724562,103.7697378
QUEEN'S RD,1.3218683999999998,103.81043000000001
CHANDER RD,1.3074256000000002,103.8508295
KELANTAN RD,1.3060351000000001,103.8560372
SAGO LANE,1.2814979,103.8438008
UPPER CROSS ST,1.2878307,103.84175959999999
CHIN SWEE RD,1.2853860000000001,103.83728640000001
SMITH ST,1.2832016000000002,103.8426325
TECK WHYE AVE,1.3780687,103.75616550000001
CHOA CHU KANG ST 51,1.3912813,103.7432984
CHOA CHU KANG AVE 5,1.3746256000000001,103.7418397
CHOA CHU KANG AVE 1,1.3774918999999999,103.747989
ANG MO KIO ST 11,1.3710395,103.8366809
WEST COAST DRIVE,1.313183,103.75994150000001
PAYA LEBAR WAY,1.3239597,103.8850462
ALJUNIED CRES,1.3187948,103.88577
JOO CHIAT RD,1.3096616,103.9022157
PINE CL,1.3067768999999998,103.8831802
HOUGANG ST 22,1.3556681000000002,103.8910059
HOUGANG AVE 9,1.3750567,103.8774424
HOUGANG AVE 6,1.3772091999999998,103.8927471
HOUGANG ST 21,1.3594518,103.8887515
KAMPONG KAYU RD,1.3033952,103.88432519999999
BUKIT BATOK ST 32,1.3604476,103.7483455
BUKIT BATOK ST 33,1.3618713,103.7484133
JELLICOE RD,1.3083328,103.86269909999999
BUKIT BATOK WEST AVE 2,1.3617893,103.7433827
BUKIT BATOK WEST AVE 7,1.3664326999999998,103.7454286
LOWER DELTA RD,1.2895497,103.8258172
BUKIT MERAH CENTRAL,1.28281325,103.8167429889343
EVERTON PK,1.2771286000000002,103.8393679151902
KIM CHENG ST,1.2845393,103.8319423
SILAT AVE,1.2760345,103.8306259
HOY FATT RD,1.2897996,103.8133147
JELEBU RD,1.380574,103.7635262
COMMONWEALTH AVE,1.3006813,103.80050390000001
SELEGIE RD,1.3045406000000002,103.85053570000001
BUFFALO RD,1.3072583,103.8500308
JALAN BERSEH,1.3069742,103.8577809
CHOA CHU KANG ST 64,1.3986383,103.75030629999999
BUANGKOK GREEN,1.3813673999999998,103.8881578
CLEMENTI AVE 6,1.3189905,103.7629418
CLEMENTI ST 13,1.3246642,103.77253259999999
DAKOTA CRES,1.3063446,103.8837397
ALJUNIED RD,1.3134086,103.8820428
SIMS AVE,1.3123538000000001,103.87322320000001
LORONG 6 TOA PAYOH,1.339145,103.8522131
WOODLANDS AVE 3,1.4344073,103.782427
KAMPONG ARANG RD,1.3010868,103.8847118
BISHAN ST 11,1.3462303999999998,103.8529209
BUKIT BATOK ST 22,1.344382,103.7491765
EMPRESS RD,1.3172681,103.8062791
VEERASAMY RD,1.307395,103.854419
SEMBAWANG WAY,1.4497360000000001,103.82162170000001
CHOA CHU KANG ST 53,1.3907996,103.74758759999999
CHOA CHU KANG NORTH 7,1.4010533,103.74569240000001
GEYLANG SERAI,1.3169144,103.8974145
JALAN TIGA,1.3073692,103.8848167
JALAN MA'MOR,1.3284611000000002,103.8576752
WOODLANDS DRIVE 72,1.4426272,103.8047959
TIONG BAHRU RD,1.2840591000000001,103.8349675
REDHILL LANE,1.2866596000000001,103.81876290000001
SAUJANA RD,1.3845478,103.76581350000001
UPPER ALJUNIED LANE,1.3341644,103.8795385
CHOA CHU KANG LOOP,1.3840233,103.74352320000001
WOODLANDS DRIVE 71,1.4403221000000002,103.79983680000001
JURONG WEST ST 51,1.3463031,103.7213807
ANG MO KIO ST 21,1.3675918,103.83584599999999
TESSENSOHN RD,1.3135415000000001,103.8543561
KLANG LANE,1.3084848,103.8522978
CLEMENTI ST 14,1.3233639,103.7690765
SIMS PL,1.3158586,103.87836300000001
WHAMPOA STH,1.3241061,103.8670139
KIM PONG RD,1.2855469,103.8301137
CLEMENTI ST 12,1.3229030000000002,103.7700876
PUNGGOL WAY,1.4000629999999998,103.8959395
FRENCH RD,1.3071728,103.8613904
GLOUCESTER RD,1.3134546,103.8515408
MOULMEIN RD,1.3190365,103.8435782
AH HOOD RD,1.3265139,103.8448408
TAMPINES CENTRAL 1,1.3531378,103.94312359999999
YISHUN ST 31,1.4318285,103.8463908
YISHUN CENTRAL 1,1.4287265,103.836962
ANG MO KIO AVE 2,1.3745184,103.8331708
TECK WHYE CRES,1.3820016000000002,103.754915
JALAN DUA,1.309022,103.8876286
KRETA AYER RD,1.2808295,103.84259709999999
MONTREAL LINK,1.4501391000000001,103.8275065
LIM LIAK ST,1.2852298999999998,103.830155
UPPER SERANGOON CRES,1.3753303,103.8996978
SUMANG LINK,1.4091208999999998,103.9022329
SENGKANG EAST AVE,1.3816662,103.90347940000001
YISHUN AVE 1,1.4099855,103.8297553
ANCHORVALE CRES,1.3966433,103.8930017
YUNG KUANG RD,1.3314606000000002,103.7246189
ANCHORVALE ST,1.3968777,103.891871
TAMPINES CENTRAL 8,1.3567971,103.9406747
YISHUN ST 51,1.4163608,103.84023459999999
UPPER SERANGOON VIEW,1.3749246000000002,103.9007286
TAMPINES AVE 1,1.348983,103.9286381
BEDOK RESERVOIR CRES,1.336141,103.92028959999999
ANG MO KIO ST 61,1.3831848999999998,103.8400772
